MEAN_MOTION;ECCENTRICITY;INCLINATION;RA_OF_ASC_NODE;ARG_OF_PERICENTER;MEAN_ANOMALY;BSTAR;MEAN_MOTION_DOT;MEAN_MOTION_DDOT;TYPE
14.45087121;0.0016121;86.4416;83.7433;130.6088;229.652;2.6643E-5;1.14E-6;0;Iridium
14.45087237;0.0016165;86.4417;83.5106;128.9648;231.2998;2.7856E-5;1.18E-6;0;Iridium
14.45087328;0.0016201;86.4417;83.336;127.7189;232.5485;2.891E-5;1.22E-6;0;Iridium
14.45087444;0.001624;86.4417;83.1033;126.0888;234.182;2.9365E-5;1.23E-6;0;Iridium
14.45087597;0.0016304;86.4418;82.696;123.2461;237.0306;2.7936E-5;1.18E-6;0;Iridium
14.45087657;0.0016328;86.4418;82.5796;122.4233;237.855;2.7998E-5;1.18E-6;0;Iridium
14.4508783;0.0016382;86.4418;82.2597;120.1943;240.0884;2.7421E-5;1.16E-6;0;Iridium
14.4508783;0.0016382;86.4418;82.2597;120.1943;240.0884;2.7421E-5;1.16E-6;0;Iridium
14.45088076;0.0016435;86.4419;81.8524;117.3479;242.9399;2.759E-5;1.17E-6;0;Iridium
14.45088163;0.0016463;86.4419;81.6488;115.9237;244.3664;2.6756E-5;1.14E-6;0;Iridium
14.45088205;0.0016493;86.442;81.4161;114.3122;245.9804;2.405E-5;1.05E-6;0;Iridium
14.45088273;0.0016527;86.442;81.2416;113.1109;247.1837;2.3571E-5;1.03E-6;0;Iridium
14.45088371;0.0016567;86.4421;80.9798;111.3348;248.9624;2.2442E-5;9.9E-7;0;Iridium
14.45088371;0.0016567;86.4421;80.9798;111.3348;248.9624;2.2442E-5;9.9E-7;0;Iridium
14.45088443;0.001658;86.4421;80.8344;110.3195;249.9791;2.3357E-5;1.02E-6;0;Iridium
14.45088575;0.0016628;86.4423;80.3982;107.3394;252.9628;2.0901E-5;9.4E-7;0;Iridium
14.45088647;0.0016649;86.4424;80.1656;105.7334;254.5706;2.0589E-5;9.3E-7;0;Iridium
14.45088776;0.0016683;86.4424;79.7292;102.752;257.5547;2.0716E-5;9.3E-7;0;Iridium
14.45088776;0.0016683;86.4424;79.7292;102.752;257.5547;2.0716E-5;9.3E-7;0;Iridium
14.45088839;0.0016683;86.4424;79.5546;101.4681;258.8395;2.1648E-5;9.6E-7;0;Iridium
14.45088917;0.0016694;86.4425;79.3219;99.851;260.4578;2.2292E-5;9.8E-7;0;Iridium
14.45089011;0.0016711;86.4425;79.1474;98.6518;261.6577;2.4184E-5;1.05E-6;0;Iridium
14.45089095;0.001672;86.4426;78.9147;97.0621;263.2483;2.4956E-5;1.08E-6;0;Iridium
14.45089157;0.0016725;86.4426;78.8565;96.6616;263.649;2.7296E-5;1.16E-6;0;Iridium
14.45089216;0.001673;86.4426;78.7111;95.6717;264.6393;2.765E-5;1.17E-6;0;Iridium
14.45089278;0.0016733;86.4427;78.4785;94.1021;266.2094;2.6421E-5;1.13E-6;0;Iridium
14.45089372;0.0016735;86.4427;78.304;92.8737;267.438;2.794E-5;1.18E-6;0;Iridium
14.4508947;0.0016737;86.4428;78.0713;91.2587;269.0533;2.8312E-5;1.2E-6;0;Iridium
14.45089553;0.0016743;86.4428;77.8677;89.8524;270.4596;2.8299E-5;1.19E-6;0;Iridium
14.45089633;0.001674;86.4429;77.6642;88.4633;271.8487;2.7897E-5;1.18E-6;0;Iridium
14.45089717;0.0016738;86.4429;77.4606;87.058;273.2537;2.781E-5;1.18E-6;0;Iridium
14.45089806;0.0016733;86.443;77.228;85.4799;274.8314;2.6893E-5;1.15E-6;0;Iridium
14.45089806;0.0016733;86.443;77.228;85.4799;274.8314;2.6893E-5;1.15E-6;0;Iridium
14.45089875;0.0016733;86.443;77.0535;84.2738;276.0371;2.6566E-5;1.13E-6;0;Iridium
14.45089958;0.001673;86.443;76.8208;82.7089;277.6014;2.528E-5;1.09E-6;0;Iridium
14.45090051;0.0016726;86.4431;76.6173;81.317;278.9925;2.4991E-5;1.08E-6;0;Iridium
14.45090156;0.0016714;86.4432;76.3847;79.7501;280.5584;2.4317E-5;1.06E-6;0;Iridium
14.45090156;0.0016714;86.4432;76.3847;79.7501;280.5584;2.4317E-5;1.06E-6;0;Iridium
14.45090229;0.0016705;86.4433;76.2103;78.5426;281.7651;2.3999E-5;1.04E-6;0;Iridium
14.45090358;0.0016691;86.4434;75.9776;76.9617;283.3447;2.4511E-5;1.06E-6;0;Iridium
14.45090461;0.0016682;86.4434;75.7741;75.5525;284.7527;2.4282E-5;1.05E-6;0;Iridium
14.45090572;0.0016665;86.4436;75.5706;74.1476;286.1562;2.4893E-5;1.08E-6;0;Iridium
14.45090666;0.001665;86.4437;75.3671;72.733;287.5692;2.485E-5;1.07E-6;0;Iridium
14.45090749;0.0016625;86.4438;75.1345;71.1161;289.1842;2.3769E-5;1.04E-6;0;Iridium
14.45090749;0.0016625;86.4438;75.1345;71.1161;289.1842;2.3769E-5;1.04E-6;0;Iridium
14.45090841;0.0016609;86.4439;74.931;69.7418;290.5567;2.3852E-5;1.04E-6;0;Iridium
14.45090942;0.0016586;86.444;74.6984;68.137;292.1594;2.3918E-5;1.04E-6;0;Iridium
14.45090942;0.0016586;86.444;74.6984;68.137;292.1594;2.3918E-5;1.04E-6;0;Iridium
14.4509102;0.0016569;86.444;74.524;66.919;293.3756;2.4274E-5;1.05E-6;0;Iridium
14.45091029;0.0016564;86.4441;74.4659;66.5059;293.7882;2.3786E-5;1.04E-6;0;Iridium
14.45091209;0.0016512;86.4442;74.088;63.8785;296.4114;2.4735E-5;1.07E-6;0;Iridium
14.45091337;0.0016485;86.4442;73.8844;62.4895;297.798;2.6591E-5;1.13E-6;0;Iridium
14.45091337;0.0016485;86.4442;73.8844;62.4895;297.798;2.6591E-5;1.13E-6;0;Iridium
14.45091478;0.0016464;86.4443;73.6809;61.0773;299.2077;2.8727E-5;1.21E-6;0;Iridium
14.45091613;0.0016432;86.4444;73.4774;59.6541;300.6283;3.0938E-5;1.29E-6;0;Iridium
14.45091771;0.0016402;86.4444;73.274;58.2367;302.0431;3.3667E-5;1.38E-6;0;Iridium
14.45091941;0.0016359;86.4445;73.0414;56.6346;303.6419;3.5987E-5;1.46E-6;0;Iridium
14.45091941;0.0016359;86.4445;73.0414;56.6346;303.6419;3.5987E-5;1.46E-6;0;Iridium
14.45092081;0.0016331;86.4446;72.838;55.1753;305.0982;3.7371E-5;1.51E-6;0;Iridium
14.45092231;0.0016296;86.4447;72.6345;53.731;306.5394;3.9344E-5;1.58E-6;0;Iridium
14.45092365;0.0016265;86.4447;72.4311;52.2949;307.9724;3.9879E-5;1.6E-6;0;Iridium
14.45092499;0.0016218;86.4449;72.1985;50.6531;309.6105;3.9309E-5;1.58E-6;0;Iridium
14.45092499;0.0016218;86.4449;72.1985;50.6531;309.6105;3.9309E-5;1.58E-6;0;Iridium
14.45092622;0.0016178;86.4449;71.9951;49.2223;311.038;3.9365E-5;1.58E-6;0;Iridium
14.45092874;0.0016099;86.445;71.5881;46.3561;313.8973;3.8233E-5;1.54E-6;0;Iridium
14.45092993;0.0016049;86.4452;71.3556;44.7174;315.5318;3.6383E-5;1.48E-6;0;Iridium
14.45092993;0.0016049;86.4452;71.3556;44.7174;315.5318;3.6383E-5;1.48E-6;0;Iridium
14.45093106;0.0016007;86.4453;71.1522;43.2695;316.9761;3.5375E-5;1.44E-6;0;Iridium
14.45093248;0.0015954;86.4454;70.9197;41.6044;318.6368;3.4386E-5;1.41E-6;0;Iridium
14.45093248;0.0015954;86.4454;70.9197;41.6044;318.6368;3.4386E-5;1.41E-6;0;Iridium
14.45093337;0.0015917;86.4454;70.7454;40.3469;319.891;3.2975E-5;1.36E-6;0;Iridium
14.45093456;0.001587;86.4455;70.542;38.8799;321.3541;3.2034E-5;1.32E-6;0;Iridium
14.45093591;0.0015831;86.4456;70.3386;37.4274;322.8027;3.1575E-5;1.31E-6;0;Iridium
14.45093879;0.0015718;86.4458;69.9027;34.2899;325.9314;3.1429E-5;1.3E-6;0;Iridium
14.45094083;0.0015617;86.4459;69.5249;31.5746;328.6389;3.0583E-5;1.27E-6;0;Iridium
14.45094164;0.0015559;86.446;69.2925;29.8729;330.3357;2.8619E-5;1.2E-6;0;Iridium
14.45094261;0.0015499;86.4461;69.06;28.1746;332.0291;2.7713E-5;1.17E-6;0;Iridium
14.45094346;0.0015441;86.4462;68.8566;26.6625;333.5368;2.7247E-5;1.16E-6;0;Iridium
14.45094346;0.0015441;86.4462;68.8566;26.6625;333.5368;2.7247E-5;1.16E-6;0;Iridium
14.45094432;0.0015385;86.4463;68.6533;25.1558;335.039;2.7323E-5;1.16E-6;0;Iridium
14.45094547;0.0015328;86.4464;68.4498;23.6407;336.5496;2.8364E-5;1.19E-6;0;Iridium
14.45094624;0.0015265;86.4464;68.2174;21.9361;338.2491;2.7707E-5;1.17E-6;0;Iridium
14.45094751;0.001521;86.4466;68.0431;20.6629;339.5185;2.9801E-5;1.24E-6;0;Iridium
14.45094872;0.0015148;86.4466;67.8107;18.9075;341.2686;3.0892E-5;1.28E-6;0;Iridium
14.45095027;0.0015071;86.4467;67.6073;17.4198;342.7517;3.3429E-5;1.37E-6;0;Iridium
14.45095027;0.0015071;86.4467;67.6073;17.4198;342.7517;3.3429E-5;1.37E-6;0;Iridium
14.45095165;0.0015008;86.4467;67.3748;15.6584;344.5079;3.4724E-5;1.42E-6;0;Iridium
14.45095309;0.0014965;86.4468;67.2005;14.3107;345.8516;3.7302E-5;1.51E-6;0;Iridium
14.45095518;0.0014828;86.447;66.7648;10.9822;349.1701;3.6176E-5;1.47E-6;0;Iridium
14.45095518;0.0014828;86.447;66.7648;10.9822;349.1701;3.6176E-5;1.47E-6;0;Iridium
14.45095603;0.0014772;86.447;66.5615;9.4295;350.7181;3.534E-5;1.44E-6;0;Iridium
14.45095749;0.0014695;86.4471;66.3291;7.6457;352.4966;3.5315E-5;1.44E-6;0;Iridium
14.45095749;0.0014695;86.4471;66.3291;7.6457;352.4966;3.5315E-5;1.44E-6;0;Iridium
14.45095834;0.0014636;86.4471;66.1258;6.1079;354.0298;3.3754E-5;1.38E-6;0;Iridium
14.45095926;0.0014577;86.4472;65.9226;4.5424;355.5907;3.2757E-5;1.35E-6;0;Iridium
14.45096013;0.0014515;86.4473;65.7193;2.9667;357.1618;3.1434E-5;1.3E-6;0;Iridium
14.45096137;0.0014447;86.4473;65.4869;1.1374;358.9858;3.0684E-5;1.27E-6;0;Iridium
14.45096137;0.0014447;86.4473;65.4869;1.1374;358.9858;3.0684E-5;1.27E-6;0;Iridium
14.45096232;0.0014386;86.4474;65.2837;359.5444;0.5742;2.9914E-5;1.25E-6;0;Iridium
14.45096339;0.0014339;86.4475;65.1094;358.1698;1.9449;2.9825E-5;1.24E-6;0;Iridium
14.45096486;0.0014274;86.4475;64.8771;356.3421;3.7674;2.9937E-5;1.25E-6;0;Iridium
14.45096621;0.0014216;86.4477;64.6738;354.7113;5.3936;3.0274E-5;1.26E-6;0;Iridium
14.45096621;0.0014216;86.4477;64.6738;354.7113;5.3936;3.0274E-5;1.26E-6;0;Iridium
14.45096726;0.0014155;86.4477;64.4705;353.0824;7.018;3.01E-5;1.25E-6;0;Iridium
14.45096796;0.0014085;86.4478;64.2382;351.206;8.8892;2.7174E-5;1.15E-6;0;Iridium
14.45096796;0.0014085;86.4478;64.2382;351.206;8.8892;2.7174E-5;1.15E-6;0;Iridium
14.45096877;0.001402;86.4479;64.0349;349.5722;10.5186;2.615E-5;1.12E-6;0;Iridium
14.45096982;0.0013967;86.448;63.8607;348.1529;11.9342;2.7319E-5;1.16E-6;0;Iridium
14.45097067;0.0013898;86.4481;63.6284;346.2719;13.8103;2.6108E-5;1.11E-6;0;Iridium
14.45097175;0.0013831;86.4482;63.4251;344.5805;15.4973;2.6437E-5;1.13E-6;0;Iridium
14.45097175;0.0013831;86.4482;63.4251;344.5805;15.4973;2.6437E-5;1.13E-6;0;Iridium
14.45097238;0.0013764;86.4482;63.1928;342.6803;17.3927;2.5064E-5;1.08E-6;0;Iridium
14.45097349;0.0013714;86.4483;63.0185;341.2343;18.8352;2.6572E-5;1.13E-6;0;Iridium
14.45097349;0.0013714;86.4483;63.0185;341.2343;18.8352;2.6572E-5;1.13E-6;0;Iridium
14.45097455;0.0013645;86.4483;62.7862;339.3244;20.7404;2.698E-5;1.14E-6;0;Iridium
14.45097622;0.0013582;86.4484;62.5829;337.6276;22.4332;2.964E-5;1.24E-6;0;Iridium
14.45097622;0.0013582;86.4484;62.5829;337.6276;22.4332;2.964E-5;1.24E-6;0;Iridium
14.45097727;0.0013515;86.4484;62.3797;335.9374;24.1195;3.0735E-5;1.28E-6;0;Iridium
14.45097875;0.0013452;86.4485;62.1764;334.204;25.8489;3.2742E-5;1.35E-6;0;Iridium
14.45098007;0.0013374;86.4485;61.9441;332.2474;27.8012;3.3657E-5;1.38E-6;0;Iridium
